0 ATLAS 2AS CENTAUR R/B
1 26072U 00007B   13282.12286785  .00032796  00000-0  14760-2 0  4700
2 26072 018.1207 196.9615 4592387 287.3128 280.6607 06.40641060245573
0 ATLAS 2AS CENTAUR R/B
1 26072U 00007B   13282.29582699  .00033926  00000-0  15271-2 0  4716
2 26072 018.1206 196.6918 4592315 287.8112 319.5594 06.40653618245584
0 ATLAS 2AS CENTAUR R/B
1 26072U 00007B   13282.57865207  .00032233  00000-0  14494-2 0  4723
2 26072 018.1199 196.2527 4592235 288.6236 251.8647 06.40672895245602
0 ATLAS 2AS CENTAUR R/B
1 26072U 00007B   13283.22811659  .00032746  00000-0  14743-2 0  4735
2 26072 018.1186 195.2424 4591982 290.4916 309.8515 06.40709338245642
0 ATLAS 2AS CENTAUR R/B
1 26072U 00007B   13284.15652602  .00031977  00000-0  14431-2 0  4749
2 26072 018.1176 193.7995 4591571 293.1616 291.3859 06.40764485245705
0 ATLAS 2AS CENTAUR R/B
1 26072U 00007B   13285.25949186  .00030433  00000-0  13766-2 0  4765
2 26072 018.1175 192.0846 4591110 296.3363 315.7909 06.40827879245775
0 ATLAS 2AS CENTAUR R/B
1 26072U 00007B   13285.76126078  .00031041  00000-0  14032-2 0  4772
2 26072 018.1183 191.3022 4590971 297.7830 033.3927 06.40857154245806
0 ATLAS 2AS CENTAUR R/B
1 26072U 00007B   13286.19108281  .00030584  00000-0  13800-2 0  4780
2 26072 018.1178 190.6380 4590901 299.0179 305.0507 06.40881441245835
0 ATLAS 2AS CENTAUR R/B
1 26072U 00007B   13286.86124675  .00032408  00000-0  14716-2 0  4794
2 26072 018.1169 189.5987 4590440 300.9453 051.2897 06.40920977245874
0 ATLAS 2AS CENTAUR R/B
1 26072U 00007B   13287.28753595  .00031319  00000-0  14267-2 0  4803
2 26072 018.1155 188.9371 4590203 302.1720 314.8890 06.40939808245905
0 ATLAS 2AS CENTAUR R/B
1 26072U 00007B   13287.70805772  .00035069  00000-0  16039-2 0  4811
2 26072 018.1152 188.2849 4589906 303.3798 205.2180 06.40968130245939
0 ATLAS 2AS CENTAUR R/B
1 26072U 00007B   13289.31696116  .00034358  00000-0  15976-2 0  4820
2 26072 018.1123 185.7891 4588655 308.0068 318.0693 06.41073467246033
0 ATLAS 2AS CENTAUR R/B
1 26072U 00007B   13289.65885150  .00035784  00000-0  16701-2 0  4837
2 26072 018.1120 185.2581 4588414 308.9900 027.1242 06.41091419246055
0 ATLAS 2AS CENTAUR R/B
1 26072U 00007B   13290.25072938  .00034868  00000-0  16351-2 0  4841
2 26072 018.1115 184.3378 4588000 310.6920 313.1885 06.41130522246090
0 ATLAS 2AS CENTAUR R/B
1 26072U 00007B   13290.92442850  .00032112  00000-0  14235-2 0  4859
2 26072 018.1162 183.2681 4589902 312.6480 068.2006 06.41178548246130
0 ATLAS 2AS CENTAUR R/B
1 26072U 00007B   13291.17840285  .00032766  00000-0  15454-2 0  4861
2 26072 018.1114 182.8922 4587434 313.3610 294.4369 06.41188420246158
0 ATLAS 2AS CENTAUR R/B
1 26072U 00007B   13291.68793653  .00033458  00000-0  15841-2 0  4873
2 26072 018.1107 182.1001 4587112 314.8264 030.6204 06.41218966246185
0 ATLAS 2AS CENTAUR R/B
1 26072U 00007B   13292.77863640  .00032683  00000-0  15576-2 0  4883
2 26072 018.1088 180.4042 4586488 317.9627 028.5196 06.41282515246256
0 ATLAS 2AS CENTAUR R/B
1 26072U 00007B   13293.81797578  .00033358  00000-0  15948-2 0  4899
2 26072 018.1068 178.7881 4586030 320.9500 268.0887 06.41341528246328
0 ATLAS 2AS CENTAUR R/B
1 26072U 00007B   13295.20854685  .00034578  00000-0  16561-2 0  4906
2 26072 018.1047 176.6234 4585493 324.9505 238.9214 06.41424346246415
